[{"OBJECT_NAME":"HAWK-2B","OBJECT_ID":"2021-006CZ","EPOCH":"2026-03-09T16:13:51.664224","MEAN_MOTION":15.33301353,"ECCENTRICITY":0.00071021,"INCLINATION":97.2334,"RA_OF_ASC_NODE":114.114,"ARG_OF_PERICENTER":185.9063,"MEAN_ANOMALY":174.2098,"EPHEMERIS_TYPE":0,"CLASSIFICATION_TYPE":"U","NORAD_CAT_ID":47508,"ELEMENT_SET_NO":999,"REV_AT_EPOCH":28424,"BSTAR":0.00029650607,"MEAN_MOTION_DOT":9.474e-5,"MEAN_MOTION_DDOT":0},{"OBJECT_NAME":"STARLINK-34417","OBJECT_ID":"2025-137Z","EPOCH":"2026-03-09T23:16:17.822208","MEAN_MOTION":15.30199504,"ECCENTRICITY":0.00014326,"INCLINATION":53.1596,"RA_OF_ASC_NODE":321.2254,"ARG_OF_PERICENTER":69.9247,"MEAN_ANOMALY":290.1908,"EPHEMERIS_TYPE":0,"CLASSIFICATION_TYPE":"U","NORAD_CAT_ID":64617,"ELEMENT_SET_NO":999,"REV_AT_EPOCH":4105,"BSTAR":0.0017036147,"MEAN_MOTION_DOT":0.00050439,"MEAN_MOTION_DDOT":0}]
